     3.02           N: GNSS NAV DATA    M: Mixed            RINEX VERSION / TYPE
RTKCONV 2.4.3 b32                       20200116 031234 UTC PGM / RUN BY / DATE 
log: C:\Users\ykouk\Desktop\1108\log_base_station.ubx       COMMENT             
format: u-blox                                              COMMENT             
                                                            END OF HEADER       
E19 2020  1 16  1 50  0 -.194343738258E-05  .127897692437E-12  .000000000000E+00
      .750000000000E+02 -.514375000000E+02  .306298472847E-08 -.347208835030E+00
     -.250712037086E-05  .905941706151E-04  .123176723719E-04  .544061918449E+04
      .352200000000E+06  .670552253723E-07  .961819851726E+00 -.931322574615E-08
      .959077683469E+00  .770312500000E+02  .227924489097E+01 -.549451458287E-08
     -.967897459671E-10  .513000000000E+03  .208800000000E+04  .000000000000E+00
      .312000000000E+01  .000000000000E+00 -.558793544769E-08 -.558793544769E-08
      .353504000000E+06  .000000000000E+00
E 4 2020  1 16  1 40  0 -.446294085123E-03 -.761701812735E-11  .000000000000E+00
      .740000000000E+02 -.675625000000E+02  .297512392585E-08 -.576673497154E+00
     -.312365591526E-05  .500276219100E-04  .133290886879E-04  .544062556648E+04
      .351600000000E+06 -.428408384323E-07  .963570127878E+00 -.558793544769E-08
      .953359108902E+00  .507500000000E+02  .157137224692E+01 -.547165648788E-08
     -.875036448780E-10  .513000000000E+03  .208800000000E+04  .000000000000E+00
      .312000000000E+01  .000000000000E+00 -.488944351673E-08 -.535510480404E-08
      .353504000000E+06  .000000000000E+00
E 1 2020  1 16  1 40  0 -.774462358095E-03 -.800071120466E-11  .000000000000E+00
      .740000000000E+02 -.868750000000E+01  .318441835809E-08 -.825398831917E-01
     -.350177288055E-06  .164264580235E-03  .520236790180E-05  .544060803413E+04
      .351600000000E+06 -.111758708954E-07  .305917211379E+01 -.316649675369E-07
      .984899463233E+00  .241781250000E+03 -.236760578371E+00 -.570380901511E-08
     -.274297139863E-09  .513000000000E+03  .208800000000E+04  .000000000000E+00
      .312000000000E+01  .000000000000E+00 -.162981450558E-08 -.186264514923E-08
      .353504000000E+06  .000000000000E+00
E27 2020  1 16  0 50  0  .302862317767E-03 -.795807864051E-11  .000000000000E+00
      .690000000000E+02  .706250000000E+01  .314477384960E-08  .134853983070E+01
      .165775418282E-06  .241924892180E-03  .536255538464E-05  .544062046051E+04
      .348600000000E+06  .912696123123E-07  .305648606307E+01 -.242143869400E-07
      .984435838161E+00  .236656250000E+03 -.468932946791E+00 -.575273962470E-08
     -.238224208709E-09  .513000000000E+03  .208800000000E+04  .000000000000E+00
      .312000000000E+01  .000000000000E+00  .465661287308E-09  .465661287308E-09
      .353504000000E+06  .000000000000E+00
G24 2020  1 16  4  0  0 -.763684511185E-05 -.568434188608E-12  .000000000000E+00
      .870000000000E+02  .567812500000E+02  .527879131142E-08  .138158173293E+01
      .294297933578E-05  .944746297318E-02  .710226595402E-05  .515366509628E+04
      .360000000000E+06 -.119209289551E-06  .224751367995E+01  .134110450745E-06
      .936924401931E+00  .229750000000E+03  .648065824623E+00 -.861107297147E-08
      .145720355552E-09  .100000000000E+01  .208800000000E+04  .000000000000E+00
      .200000000000E+01  .000000000000E+00  .279396772385E-08  .870000000000E+02
      .353526000000E+06  .400000000000E+01
G20 2020  1 16  4  0  0  .527798198164E-03  .000000000000E+00  .000000000000E+00
      .100000000000E+03 -.775625000000E+02  .539843915237E-08  .676155971513E+00
     -.428408384323E-05  .507215945981E-02  .544078648090E-05  .515362113380E+04
      .360000000000E+06  .596046447754E-07  .816206703200E-01 -.707805156708E-07
      .933095951169E+00  .259343750000E+03  .255874575625E+01 -.868464746471E-08
     -.286797660559E-09  .100000000000E+01  .208800000000E+04  .000000000000E+00
      .200000000000E+01  .000000000000E+00 -.838190317154E-08  .100000000000E+03
      .353526000000E+06  .400000000000E+01
G15 2020  1 16  4  0  0 -.258302316070E-03  .261479726760E-11  .000000000000E+00
      .970000000000E+02 -.248750000000E+02  .501735184999E-08  .245168371168E+01
     -.140257179737E-05  .121393526206E-01  .109039247036E-04  .515362888718E+04
      .360000000000E+06 -.111758708954E-07  .115623495552E+01 -.195577740669E-06
      .927927223139E+00  .152562500000E+03  .858448448109E+00 -.814141055100E-08
      .610739725475E-10  .100000000000E+01  .208800000000E+04  .000000000000E+00
      .200000000000E+01  .000000000000E+00 -.111758708954E-07  .970000000000E+02
      .353526000000E+06  .400000000000E+01
G12 2020  1 16  4  0  0  .161865260452E-03 -.409272615798E-11  .000000000000E+00
      .510000000000E+02 -.104687500000E+02  .433696636634E-08 -.172963162736E+00
     -.597909092903E-06  .783031620085E-02  .739656388760E-05  .515376372719E+04
      .360000000000E+06 -.540167093277E-07 -.286198471295E+01  .558793544769E-07
      .980271494094E+00  .252843750000E+03  .109847017663E+01 -.815141096756E-08
     -.301798285396E-09  .100000000000E+01  .208800000000E+04  .000000000000E+00
      .200000000000E+01  .000000000000E+00 -.125728547573E-07  .510000000000E+02
      .353526000000E+06  .400000000000E+01
G10 2020  1 16  4  0  0 -.211021397263E-03 -.135287336889E-10  .000000000000E+00
      .590000000000E+02 -.776250000000E+02  .458269088747E-08 -.877270713458E+00
     -.415369868279E-05  .529366009869E-02  .689178705215E-05  .515366178513E+04
      .360000000000E+06  .122934579849E-06  .207983750901E+00  .223517417908E-07
      .964954667195E+00  .249281250000E+03 -.270056567669E+01 -.820748473183E-08
     -.323227749447E-09  .100000000000E+01  .208800000000E+04  .000000000000E+00
      .200000000000E+01  .000000000000E+00  .186264514923E-08  .590000000000E+02
      .353526000000E+06  .400000000000E+01
G21 2020  1 16  4  0  0 -.550998374820E-04  .557065504836E-11  .000000000000E+00
      .690000000000E+02  .318125000000E+02  .514985736937E-08 -.697536737216E+00
      .178068876266E-05  .248149018735E-01  .561773777008E-05  .515357556152E+04
      .360000000000E+06 -.312924385071E-06 -.900566286783E+00  .707805156708E-07
      .951427492351E+00  .272250000000E+03 -.137749048649E+01 -.897037365207E-08
      .381087302387E-09  .100000000000E+01  .208800000000E+04  .000000000000E+00
      .200000000000E+01  .000000000000E+00 -.102445483208E-07  .690000000000E+02
      .353526000000E+06  .400000000000E+01
G13 2020  1 16  4  0  0 -.196513719857E-04  .261479726760E-11  .000000000000E+00
      .480000000000E+02  .625000000000E-01  .415445876417E-08  .247239490709E+01
      .335276126862E-07  .419115705881E-02  .112485140562E-04  .515366678047E+04
      .360000000000E+06  .763684511185E-07  .138318121441E+01 -.298023223877E-07
      .967532694580E+00  .166843750000E+03  .117073707017E+01 -.777818113532E-08
      .193222334200E-09  .100000000000E+01  .208800000000E+04  .000000000000E+00
      .200000000000E+01  .000000000000E+00 -.111758708954E-07  .480000000000E+02
      .353526000000E+06  .400000000000E+01
G25 2020  1 16  4  0  0 -.159228220582E-04  .795807864051E-12  .000000000000E+00
      .360000000000E+02 -.154375000000E+02  .467483758289E-08 -.514486423705E+00
     -.713393092155E-06  .892040180042E-02  .675953924656E-05  .515360346603E+04
      .360000000000E+06 -.279396772385E-07 -.292920634582E+01  .912696123123E-07
      .967622753280E+00  .256156250000E+03  .889438704281E+00 -.833106130786E-08
     -.310727228751E-09  .100000000000E+01  .208800000000E+04  .000000000000E+00
      .200000000000E+01  .000000000000E+00  .558793544769E-08  .360000000000E+02
      .353526000000E+06  .400000000000E+01
J 2 2020  1 16  3  0  0 -.776257365942E-06 -.227373675443E-12  .000000000000E+00
      .169000000000E+03 -.104062500000E+02  .113719022568E-08  .199073977222E+01
     -.873580574989E-06  .751319050323E-01 -.356696546078E-05  .649320605469E+04
      .356400000000E+06 -.473111867905E-06  .289206854361E+01  .416114926338E-05
      .755028332246E+00  .284718750000E+03 -.157701017959E+01 -.878608026122E-09
     -.135648507448E-08  .200000000000E+01  .208800000000E+04  .100000000000E+01
      .280000000000E+01  .000000000000E+00  .139698386192E-08  .937000000000E+03
      .353526000000E+06  .100000000000E+01
J 7 2020  1 16  3  0  0 -.419095158577E-08  .000000000000E+00  .000000000000E+00
      .169000000000E+03  .374343750000E+03  .000000000000E+00 -.639643069393E+00
      .125207006931E-04  .133531168103E-03 -.121761113405E-04  .649328063393E+04
      .356400000000E+06  .838190317154E-06  .223471599360E+01  .160001218319E-05
      .920062827167E-03  .376062500000E+03  .147704053596E+01  .110933192241E-08
      .000000000000E+00  .200000000000E+01  .208800000000E+04  .100000000000E+01
      .280000000000E+01  .000000000000E+00 -.558793544769E-08  .937000000000E+03
      .353526000000E+06  .100000000000E+01
J 3 2020  1 16  3  0  0 -.124331563711E-06 -.113686837722E-12  .000000000000E+00
      .169000000000E+03  .248875000000E+03  .242188659558E-08  .234666639356E+00
      .892765820026E-05  .752268184442E-01  .119563192129E-04  .649280067635E+04
      .356400000000E+06 -.379979610443E-06 -.169785720613E+01 -.949949026108E-07
      .711806103067E+00 -.177812500000E+03 -.159226020526E+01 -.289547775113E-08
      .257153568621E-10  .200000000000E+01  .208800000000E+04  .100000000000E+01
      .280000000000E+01  .000000000000E+00  .465661287308E-09  .937000000000E+03
      .353526000000E+06  .100000000000E+01
J 1 2020  1 16  3  0  0 -.325500033796E-03  .454747350886E-12  .000000000000E+00
      .169000000000E+03 -.288437500000E+03  .150256258776E-08 -.206592009345E+01
     -.114906579256E-04  .754221957177E-01  .217538326979E-04  .649364732170E+04
      .356400000000E+06 -.920146703720E-06  .608347224264E+00 -.271201133728E-05
      .724567608532E+00 -.568468750000E+03 -.155996445270E+01 -.870393398236E-09
      .519664503255E-09  .200000000000E+01  .208800000000E+04  .100000000000E+01
      .280000000000E+01  .000000000000E+00 -.512227416039E-08  .937000000000E+03
      .353526000000E+06  .100000000000E+01
